KUIPER-00117            
1 65949U 25228C   26201.52911958  .00004211  00000+0  58008-3 0  9994
2 65949  51.9002 130.6576 0000640  56.3741 303.7282 14.80002917 42931
KUIPER-00121            
1 65950U 25228D   26201.50086871  .00001795  00000+0  26441-3 0  9991
2 65950  51.9003 125.7959 0000732  99.7984 260.3061 14.79935935 43001
KUIPER-00122            
1 65951U 25228E   26201.08490411  .00001547  00000+0  23190-3 0  9997
2 65951  51.8998 137.6079 0000872  81.6483 278.4578 14.79937032 42808
KUIPER-00123            
1 65952U 25228F   26201.79393704  .00001690  00000+0  25048-3 0  9996
2 65952  51.8991 134.4838 0000956  67.1553 292.9510 14.79951600 42905
KUIPER-00124            
1 65953U 25228G   26201.53190485  .00001920  00000+0  28062-3 0  9995
2 65953  51.8990 128.1313 0000908  82.2627 277.8438 14.79951484 42978
KUIPER-00125            
1 65954U 25228H   26201.21047915  .00001899  00000+0  27804-3 0  9998
2 65954  51.9013 114.5989 0000889  90.4812 269.6253 14.79938805 43134
KUIPER-00126            
1 65955U 25228J   26201.49275594  .00001832  00000+0  26916-3 0  9995
2 65955  51.8993 133.3355 0000956  84.4387 275.6685 14.79949476 42896
KUIPER-00127            
1 65956U 25228K   26201.21387547  .00001844  00000+0  27087-3 0  9991
2 65956  51.9012 127.0407 0000983  84.3224 275.7850 14.79933386 42963
KUIPER-00128            
1 65957U 25228L   26201.93978803  .00002091  00000+0  30310-3 0  9990
2 65957  51.9011 123.8957 0000939  83.2010 276.9059 14.79954898 43066
KUIPER-00129            
1 65958U 25228M   26200.96601880  .00001633  00000+0  24305-3 0  9999
2 65958  51.9008 123.1825 0000902  89.0022 271.1044 14.79945978 42998
KUIPER-00130            
1 65959U 25228N   26201.94251305  .00002020  00000+0  29381-3 0  9992
2 65959  51.9030 121.3996 0000798  92.0070 268.0984 14.79940432 33395
KUIPER-00134            
1 65960U 25228P   26201.90670172  .00018468  00000+0  43546-3 0  9999
2 65960  51.8721  33.2281 0006429  75.9509 284.2194 15.41934099 44325
KUIPER-00135            
1 65961U 25228Q   26201.16593588  .00001826  00000+0  26842-3 0  9993
2 65961  51.9026 124.8873 0000912  88.3172 271.7895 14.79941121 42987
KUIPER-00136            
1 65962U 25228R   26201.94521061  .00002060  00000+0  29908-3 0  9994
2 65962  51.9016 118.8957 0000940  83.2774 276.8295 14.79944377 43130
KUIPER-00137            
1 65963U 25228S   26201.94786010  .00002113  00000+0  30622-3 0  9996
2 65963  51.9035 116.3794 0001030  87.1628 272.9452 14.79913294 43176
KUIPER-00138            
1 65964U 25228T   26201.91680461 -.00000774  00000+0 -72565-4 0  9993
2 65964  51.8993 113.9413 0000786  89.8556 270.2496 14.79932248 43209
