{"fetched_at":"2026-07-21T07:06:26.959Z","source":"https://celestrak.org/NORAD/elements/gp.php?GROUP=kuiper&FORMAT=JSON","constellation":"kuiper","records":[{"OBJECT_NAME":"KUIPER-00117","OBJECT_ID":"2025-228C","EPOCH":"2026-07-20T12:41:55.931712","CLASSIFICATION_TYPE":"U","MEAN_MOTION":14.80002917,"ECCENTRICITY":0.00006407,"INCLINATION":51.9002,"RA_OF_ASC_NODE":130.6576,"ARG_OF_PERICENTER":56.3741,"MEAN_ANOMALY":303.7282,"EPHEMERIS_TYPE":0,"NORAD_CAT_ID":65949,"ELEMENT_SET_NO":999,"REV_AT_EPOCH":4293,"BSTAR":0.00058008104,"MEAN_MOTION_DOT":0.00004211,"MEAN_MOTION_DDOT":0},{"OBJECT_NAME":"KUIPER-00121","OBJECT_ID":"2025-228D","EPOCH":"2026-07-20T12:01:15.056544","CLASSIFICATION_TYPE":"U","MEAN_MOTION":14.79935935,"ECCENTRICITY":0.00007321,"INCLINATION":51.9003,"RA_OF_ASC_NODE":125.7959,"ARG_OF_PERICENTER":99.7984,"MEAN_ANOMALY":260.3061,"EPHEMERIS_TYPE":0,"NORAD_CAT_ID":65950,"ELEMENT_SET_NO":999,"REV_AT_EPOCH":4300,"BSTAR":0.00026440894,"MEAN_MOTION_DOT":0.00001795,"MEAN_MOTION_DDOT":0},{"OBJECT_NAME":"KUIPER-00122","OBJECT_ID":"2025-228E","EPOCH":"2026-07-20T02:02:15.715104","CLASSIFICATION_TYPE":"U","MEAN_MOTION":14.79937032,"ECCENTRICITY":0.00008723,"INCLINATION":51.8998,"RA_OF_ASC_NODE":137.6079,"ARG_OF_PERICENTER":81.6483,"MEAN_ANOMALY":278.4578,"EPHEMERIS_TYPE":0,"NORAD_CAT_ID":65951,"ELEMENT_SET_NO":999,"REV_AT_EPOCH":4280,"BSTAR":0.00023190034,"MEAN_MOTION_DOT":0.00001547,"MEAN_MOTION_DDOT":0},{"OBJECT_NAME":"KUIPER-00123","OBJECT_ID":"2025-228F","EPOCH":"2026-07-20T19:03:16.160256","CLASSIFICATION_TYPE":"U","MEAN_MOTION":14.799516,"ECCENTRICITY":0.00009561,"INCLINATION":51.8991,"RA_OF_ASC_NODE":134.4838,"ARG_OF_PERICENTER":67.1553,"MEAN_ANOMALY":292.951,"EPHEMERIS_TYPE":0,"NORAD_CAT_ID":65952,"ELEMENT_SET_NO":999,"REV_AT_EPOCH":4290,"BSTAR":0.00025048117,"MEAN_MOTION_DOT":0.0000169,"MEAN_MOTION_DDOT":0},{"OBJECT_NAME":"KUIPER-00124","OBJECT_ID":"2025-228G","EPOCH":"2026-07-20T12:45:56.579040","CLASSIFICATION_TYPE":"U","MEAN_MOTION":14.79951484,"ECCENTRICITY":0.0000908,"INCLINATION":51.899,"RA_OF_ASC_NODE":128.1313,"ARG_OF_PERICENTER":82.2627,"MEAN_ANOMALY":277.8438,"EPHEMERIS_TYPE":0,"NORAD_CAT_ID":65953,"ELEMENT_SET_NO":999,"REV_AT_EPOCH":4297,"BSTAR":0.00028062,"MEAN_MOTION_DOT":0.0000192,"MEAN_MOTION_DDOT":0},{"OBJECT_NAME":"KUIPER-00125","OBJECT_ID":"2025-228H","EPOCH":"2026-07-20T05:03:05.398560","CLASSIFICATION_TYPE":"U","MEAN_MOTION":14.79938805,"ECCENTRICITY":0.00008897,"INCLINATION":51.9013,"RA_OF_ASC_NODE":114.5989,"ARG_OF_PERICENTER":90.4812,"MEAN_ANOMALY":269.6253,"EPHEMERIS_TYPE":0,"NORAD_CAT_ID":65954,"ELEMENT_SET_NO":999,"REV_AT_EPOCH":4313,"BSTAR":0.00027804417,"MEAN_MOTION_DOT":0.00001899,"MEAN_MOTION_DDOT":0},{"OBJECT_NAME":"KUIPER-00126","OBJECT_ID":"2025-228J","EPOCH":"2026-07-20T11:49:34.113216","CLASSIFICATION_TYPE":"U","MEAN_MOTION":14.79949476,"ECCENTRICITY":0.00009565,"INCLINATION":51.8993,"RA_OF_ASC_NODE":133.3355,"ARG_OF_PERICENTER":84.4387,"MEAN_ANOMALY":275.6685,"EPHEMERIS_TYPE":0,"NORAD_CAT_ID":65955,"ELEMENT_SET_NO":999,"REV_AT_EPOCH":4289,"BSTAR":0.00026916203,"MEAN_MOTION_DOT":0.00001832,"MEAN_MOTION_DDOT":0},{"OBJECT_NAME":"KUIPER-00127","OBJECT_ID":"2025-228K","EPOCH":"2026-07-20T05:07:58.840608","CLASSIFICATION_TYPE":"U","MEAN_MOTION":14.79933386,"ECCENTRICITY":0.00009832,"INCLINATION":51.9012,"RA_OF_ASC_NODE":127.0407,"ARG_OF_PERICENTER":84.3224,"MEAN_ANOMALY":275.785,"EPHEMERIS_TYPE":0,"NORAD_CAT_ID":65956,"ELEMENT_SET_NO":999,"REV_AT_EPOCH":4296,"BSTAR":0.00027087479,"MEAN_MOTION_DOT":0.00001844,"MEAN_MOTION_DDOT":0},{"OBJECT_NAME":"KUIPER-00128","OBJECT_ID":"2025-228L","EPOCH":"2026-07-20T22:33:17.685792","CLASSIFICATION_TYPE":"U","MEAN_MOTION":14.79954898,"ECCENTRICITY":0.00009395,"INCLINATION":51.9011,"RA_OF_ASC_NODE":123.8957,"ARG_OF_PERICENTER":83.201,"MEAN_ANOMALY":276.9059,"EPHEMERIS_TYPE":0,"NORAD_CAT_ID":65957,"ELEMENT_SET_NO":999,"REV_AT_EPOCH":4306,"BSTAR":0.00030310174,"MEAN_MOTION_DOT":0.00002091,"MEAN_MOTION_DDOT":0},{"OBJECT_NAME":"KUIPER-00129","OBJECT_ID":"2025-228M","EPOCH":"2026-07-19T23:11:04.024320","CLASSIFICATION_TYPE":"U","MEAN_MOTION":14.79945978,"ECCENTRICITY":0.00009022,"INCLINATION":51.9008,"RA_OF_ASC_NODE":123.1825,"ARG_OF_PERICENTER":89.0022,"MEAN_ANOMALY":271.1044,"EPHEMERIS_TYPE":0,"NORAD_CAT_ID":65958,"ELEMENT_SET_NO":999,"REV_AT_EPOCH":4299,"BSTAR":0.00024305282,"MEAN_MOTION_DOT":0.00001633,"MEAN_MOTION_DDOT":0},{"OBJECT_NAME":"KUIPER-00130","OBJECT_ID":"2025-228N","EPOCH":"2026-07-20T22:37:13.127520","CLASSIFICATION_TYPE":"U","MEAN_MOTION":14.79940432,"ECCENTRICITY":0.00007983,"INCLINATION":51.903,"RA_OF_ASC_NODE":121.3996,"ARG_OF_PERICENTER":92.007,"MEAN_ANOMALY":268.0984,"EPHEMERIS_TYPE":0,"NORAD_CAT_ID":65959,"ELEMENT_SET_NO":999,"REV_AT_EPOCH":3339,"BSTAR":0.00029380726,"MEAN_MOTION_DOT":0.0000202,"MEAN_MOTION_DDOT":0},{"OBJECT_NAME":"KUIPER-00134","OBJECT_ID":"2025-228P","EPOCH":"2026-07-20T21:45:39.028608","CLASSIFICATION_TYPE":"U","MEAN_MOTION":15.41934099,"ECCENTRICITY":0.00064294,"INCLINATION":51.8721,"RA_OF_ASC_NODE":33.2281,"ARG_OF_PERICENTER":75.9509,"MEAN_ANOMALY":284.2194,"EPHEMERIS_TYPE":0,"NORAD_CAT_ID":65960,"ELEMENT_SET_NO":999,"REV_AT_EPOCH":4432,"BSTAR":0.00043545769,"MEAN_MOTION_DOT":0.00018468,"MEAN_MOTION_DDOT":0},{"OBJECT_NAME":"KUIPER-00135","OBJECT_ID":"2025-228Q","EPOCH":"2026-07-20T03:58:56.860032","CLASSIFICATION_TYPE":"U","MEAN_MOTION":14.79941121,"ECCENTRICITY":0.00009124,"INCLINATION":51.9026,"RA_OF_ASC_NODE":124.8873,"ARG_OF_PERICENTER":88.3172,"MEAN_ANOMALY":271.7895,"EPHEMERIS_TYPE":0,"NORAD_CAT_ID":65961,"ELEMENT_SET_NO":999,"REV_AT_EPOCH":4298,"BSTAR":0.00026842447,"MEAN_MOTION_DOT":0.00001826,"MEAN_MOTION_DDOT":0},{"OBJECT_NAME":"KUIPER-00136","OBJECT_ID":"2025-228R","EPOCH":"2026-07-20T22:41:06.196704","CLASSIFICATION_TYPE":"U","MEAN_MOTION":14.79944377,"ECCENTRICITY":0.00009404,"INCLINATION":51.9016,"RA_OF_ASC_NODE":118.8957,"ARG_OF_PERICENTER":83.2774,"MEAN_ANOMALY":276.8295,"EPHEMERIS_TYPE":0,"NORAD_CAT_ID":65962,"ELEMENT_SET_NO":999,"REV_AT_EPOCH":4313,"BSTAR":0.00029908311,"MEAN_MOTION_DOT":0.0000206,"MEAN_MOTION_DDOT":0},{"OBJECT_NAME":"KUIPER-00137","OBJECT_ID":"2025-228S","EPOCH":"2026-07-20T22:44:55.112640","CLASSIFICATION_TYPE":"U","MEAN_MOTION":14.79913294,"ECCENTRICITY":0.00010301,"INCLINATION":51.9035,"RA_OF_ASC_NODE":116.3794,"ARG_OF_PERICENTER":87.1628,"MEAN_ANOMALY":272.9452,"EPHEMERIS_TYPE":0,"NORAD_CAT_ID":65963,"ELEMENT_SET_NO":999,"REV_AT_EPOCH":4317,"BSTAR":0.00030621878,"MEAN_MOTION_DOT":0.00002113,"MEAN_MOTION_DDOT":0},{"OBJECT_NAME":"KUIPER-00138","OBJECT_ID":"2025-228T","EPOCH":"2026-07-20T22:00:11.918304","CLASSIFICATION_TYPE":"U","MEAN_MOTION":14.79932248,"ECCENTRICITY":0.00007869,"INCLINATION":51.8993,"RA_OF_ASC_NODE":113.9413,"ARG_OF_PERICENTER":89.8556,"MEAN_ANOMALY":270.2496,"EPHEMERIS_TYPE":0,"NORAD_CAT_ID":65964,"ELEMENT_SET_NO":999,"REV_AT_EPOCH":4320,"BSTAR":-0.000072564723,"MEAN_MOTION_DOT":-0.00000774,"MEAN_MOTION_DDOT":0}]}
